QIANFAN-17              
1 60395U 24140S   25280.81625977  .00000073  00000+0  93893-4 0  9991
2 60395  88.9766 306.2638 0016240  42.8923 317.3492 13.50972682 59239
QIANFAN-18              
1 60396U 24140T   25280.86976697  .00000056  00000+0  68328-4 0  9991
2 60396  88.9757 305.7968 0015021  26.8928 333.2999 13.50974183 58633
QIANFAN-19              
1 61552U 24185A   25280.85444823  .00000668  00000+0  34319-3 0  9996
2 61552  88.9761  85.4895 0008129 143.3337 216.8407 14.14189391 60356
QIANFAN-20              
1 61553U 24185B   25280.84526959  .00000642  00000+0  36483-3 0  9993
2 61553  88.9758  85.7480 0005779 171.2854 188.8431 14.08739476 60216
QIANFAN-21              
1 61554U 24185C   25280.84038935  .00001033  00000+0  45708-3 0  9991
2 61554  88.9677  84.6964 0009565 207.6249 152.4435 14.22466657 60609
QIANFAN-22              
1 61555U 24185D   25280.88974898  .00000259  00000+0  21286-3 0  9997
2 61555  88.9744  86.4598 0006464 179.1320 180.9864 13.86267561 59811
QIANFAN-23              
1 61556U 24185E   25280.85202438  .00000879  00000+0  43731-3 0  9996
2 61556  88.9754  85.3301 0008569 155.0346 205.1257 14.16181414 60423
QIANFAN-24              
1 61557U 24185F   25280.82853740  .00000986  00000+0  42578-3 0  9999
2 61557  88.9738  84.8456 0010849 143.6339 216.5592 14.23671867 60646
